{
  "norad_id": 45741,
  "name": "STARLINK-1480",
  "history": [
    {
      "epoch": "2026-03-28T19:27:49.180032Z",
      "apogee_km": 404.11063517483854,
      "perigee_km": 401.76655296348054,
      "latitude_deg": 4.8565124519247235e-05,
      "longitude_deg": 7.262539471777854,
      "height_km": 403.3150478358534,
      "semi_major_axis_km": 6781.075594069159,
      "eccentricity": 0.00017284,
      "inclination_deg": 53.0531,
      "raan_deg": 125.4435,
      "arg_perigee_deg": 63.7072,
      "mean_anomaly_deg": 296.4116,
      "mean_motion_rev_day": 15.54729658
    },
    {
      "epoch": "2026-03-29T01:38:04.742016Z",
      "apogee_km": 403.97654096530005,
      "perigee_km": 401.5449110407553,
      "latitude_deg": -6.677479742959806e-05,
      "longitude_deg": -86.79972196172059,
      "height_km": 403.04914480511184,
      "semi_major_axis_km": 6780.897726003027,
      "eccentricity": 0.0001793,
      "inclination_deg": 53.0529,
      "raan_deg": 124.1996,
      "arg_perigee_deg": 60.0376,
      "mean_anomaly_deg": 300.0811,
      "mean_motion_rev_day": 15.54790831
    },
    {
      "epoch": "2026-03-30T02:18:59.719392Z",
      "apogee_km": 403.50850304869255,
      "perigee_km": 400.8930555537054,
      "latitude_deg": -6.71766342084549e-05,
      "longitude_deg": -103.01214526088799,
      "height_km": 402.46909785955336,
      "semi_major_axis_km": 6780.337779301199,
      "eccentricity": 0.00019287,
      "inclination_deg": 53.0518,
      "raan_deg": 119.2299,
      "arg_perigee_deg": 61.3462,
      "mean_anomaly_deg": 298.7741,
      "mean_motion_rev_day": 15.54983436
    },
    {
      "epoch": "2026-03-30T11:34:17.508576Z",
      "apogee_km": 403.31700507741607,
      "perigee_km": 400.61513400420336,
      "latitude_deg": 3.443186588746128e-05,
      "longitude_deg": 115.91852264283104,
      "height_km": 402.29935226348135,
      "semi_major_axis_km": 6780.103069540809,
      "eccentricity": 0.00019925,
      "inclination_deg": 53.0515,
      "raan_deg": 117.3647,
      "arg_perigee_deg": 65.4209,
      "mean_anomaly_deg": 294.7009,
      "mean_motion_rev_day": 15.55064181
    },
    {
      "epoch": "2026-03-30T19:17:01.008960Z",
      "apogee_km": 403.19103171216557,
      "perigee_km": 400.3450987619808,
      "latitude_deg": 4.4136510717910934e-05,
      "longitude_deg": -1.6322453402073416,
      "height_km": 402.08142386634535,
      "semi_major_axis_km": 6779.905065237072,
      "eccentricity": 0.00020988,
      "inclination_deg": 53.0518,
      "raan_deg": 115.8119,
      "arg_perigee_deg": 65.8686,
      "mean_anomaly_deg": 294.2544,
      "mean_motion_rev_day": 15.55132304
    },
    {
      "epoch": "2026-03-31T07:37:20.234784Z",
      "apogee_km": 402.95275820371353,
      "perigee_km": 400.0217910373094,
      "latitude_deg": -4.110618270891638e-05,
      "longitude_deg": 170.29435264772246,
      "height_km": 401.8456179207534,
      "semi_major_axis_km": 6779.624274620512,
      "eccentricity": 0.00021616,
      "inclination_deg": 53.0517,
      "raan_deg": 113.3254,
      "arg_perigee_deg": 68.5183,
      "mean_anomaly_deg": 291.6057,
      "mean_motion_rev_day": 15.55228918
    },
    {
      "epoch": "2026-04-01T09:50:20.760000Z",
      "apogee_km": 402.37240403749547,
      "perigee_km": 399.2527314464196,
      "latitude_deg": 8.229813063626781e-05,
      "longitude_deg": 130.68097177734126,
      "height_km": 401.4086037254043,
      "semi_major_axis_km": 6778.949567741957,
      "eccentricity": 0.0002301,
      "inclination_deg": 53.0515,
      "raan_deg": 108.0408,
      "arg_perigee_deg": 78.9619,
      "mean_anomaly_deg": 281.1651,
      "mean_motion_rev_day": 15.55461111
    },
    {
      "epoch": "2026-04-02T07:25:35.710176Z",
      "apogee_km": 401.8025225168749,
      "perigee_km": 398.6696940336915,
      "latitude_deg": 4.14023013992807e-05,
      "longitude_deg": 161.63008317931593,
      "height_km": 400.75907691913835,
      "semi_major_axis_km": 6778.373108275283,
      "eccentricity": 0.00023109,
      "inclination_deg": 53.0514,
      "raan_deg": 103.6888,
      "arg_perigee_deg": 76.269,
      "mean_anomaly_deg": 283.8578,
      "mean_motion_rev_day": 15.55659539
    },
    {
      "epoch": "2026-04-03T17:20:40.061760Z",
      "apogee_km": 401.0471129463458,
      "perigee_km": 397.6800506573054,
      "latitude_deg": 5.6204037735597185e-05,
      "longitude_deg": 4.628705430815837,
      "height_km": 400.07090042308874,
      "semi_major_axis_km": 6777.500581801825,
      "eccentricity": 0.0002484,
      "inclination_deg": 53.0511,
      "raan_deg": 96.8485,
      "arg_perigee_deg": 83.6159,
      "mean_anomaly_deg": 276.5135,
      "mean_motion_rev_day": 15.55959959
    },
    {
      "epoch": "2026-04-04T05:40:34.718016Z",
      "apogee_km": 400.5721598923219,
      "perigee_km": 397.3062868602765,
      "latitude_deg": -7.230374406052096e-06,
      "longitude_deg": 176.65567229810281,
      "height_km": 399.73350619400026,
      "semi_major_axis_km": 6777.076223376299,
      "eccentricity": 0.00024095,
      "inclination_deg": 53.0507,
      "raan_deg": 94.3597,
      "arg_perigee_deg": 86.4767,
      "mean_anomaly_deg": 273.6519,
      "mean_motion_rev_day": 15.56106105
    },
    {
      "epoch": "2026-04-05T14:00:03.000384Z",
      "apogee_km": 399.6046371231896,
      "perigee_km": 396.1315279580822,
      "latitude_deg": -7.805460614059318,
      "longitude_deg": 38.05277920945082,
      "height_km": 400.42168710232784,
      "semi_major_axis_km": 6776.005082540635,
      "eccentricity": 0.00025628,
      "inclination_deg": 53.0513,
      "raan_deg": 87.837,
      "arg_perigee_deg": 90.8002,
      "mean_anomaly_deg": 259.6041,
      "mean_motion_rev_day": 15.564751
    },
    {
      "epoch": "2026-04-05T22:00:03.000096Z",
      "apogee_km": 399.5220841320861,
      "perigee_km": 395.89565142365154,
      "latitude_deg": 43.53254117368553,
      "longitude_deg": -32.72569249500042,
      "height_km": 400.6193997946352,
      "semi_major_axis_km": 6775.845867777869,
      "eccentricity": 0.0002676,
      "inclination_deg": 53.0516,
      "raan_deg": 86.2202,
      "arg_perigee_deg": 97.3795,
      "mean_anomaly_deg": 321.9143,
      "mean_motion_rev_day": 15.5652996
    },
    {
      "epoch": "2026-04-06T06:00:02.000160Z",
      "apogee_km": 399.2692466313638,
      "perigee_km": 395.6084030132133,
      "latitude_deg": 39.01895700341157,
      "longitude_deg": -57.25216024726904,
      "height_km": 399.28980243484153,
      "semi_major_axis_km": 6775.575824822288,
      "eccentricity": 0.00027015,
      "inclination_deg": 53.0515,
      "raan_deg": 84.607,
      "arg_perigee_deg": 94.1256,
      "mean_anomaly_deg": 34.0799,
      "mean_motion_rev_day": 15.56623015
    },
    {
      "epoch": "2026-04-07T14:00:01.999872Z",
      "apogee_km": 398.33438383652174,
      "perigee_km": 394.62189474019124,
      "latitude_deg": 34.538737829735254,
      "longitude_deg": 63.26156426955411,
      "height_km": 397.9770967252908,
      "semi_major_axis_km": 6774.615139288356,
      "eccentricity": 0.000274,
      "inclination_deg": 53.0508,
      "raan_deg": 78.1436,
      "arg_perigee_deg": 103.1694,
      "mean_anomaly_deg": 301.8819,
      "mean_motion_rev_day": 15.56954136
    },
    {
      "epoch": "2026-04-07T20:00:00.999360Z",
      "apogee_km": 398.3557545607255,
      "perigee_km": 394.5579172563157,
      "latitude_deg": 5.575896818273297,
      "longitude_deg": -54.99094271684572,
      "height_km": 397.194525186991,
      "semi_major_axis_km": 6774.59383590852,
      "eccentricity": 0.0002803,
      "inclination_deg": 53.0509,
      "raan_deg": 76.9303,
      "arg_perigee_deg": 108.9555,
      "mean_anomaly_deg": 258.1166,
      "mean_motion_rev_day": 15.5696148
    },
    {
      "epoch": "2026-04-08T08:17:40.897536Z",
      "apogee_km": 397.992347636482,
      "perigee_km": 394.21272842863164,
      "latitude_deg": -5.092747835692622e-05,
      "longitude_deg": 113.4173695358671,
      "height_km": 397.6259874050431,
      "semi_major_axis_km": 6774.239538032556,
      "eccentricity": 0.00027897,
      "inclination_deg": 53.0526,
      "raan_deg": 74.4473,
      "arg_perigee_deg": 109.4279,
      "mean_anomaly_deg": 250.7033,
      "mean_motion_rev_day": 15.57083627
    },
    {
      "epoch": "2026-04-09T19:43:18.692832Z",
      "apogee_km": 397.2007981009983,
      "perigee_km": 393.3548531630058,
      "latitude_deg": 1.9511809034255513e-05,
      "longitude_deg": -66.60450457427503,
      "height_km": 396.96489385817597,
      "semi_major_axis_km": 6773.414825632002,
      "eccentricity": 0.0002839,
      "inclination_deg": 53.0517,
      "raan_deg": 67.2878,
      "arg_perigee_deg": 114.3266,
      "mean_anomaly_deg": 245.8042,
      "mean_motion_rev_day": 15.57368015
    },
    {
      "epoch": "2026-04-10T08:02:34.044864Z",
      "apogee_km": 396.91872966177743,
      "perigee_km": 393.0160669074867,
      "latitude_deg": -2.449023162638743e-05,
      "longitude_deg": 105.58419173573532,
      "height_km": 396.8279577171179,
      "semi_major_axis_km": 6773.104398284632,
      "eccentricity": 0.0002881,
      "inclination_deg": 53.0515,
      "raan_deg": 64.7965,
      "arg_perigee_deg": 119.6554,
      "mean_anomaly_deg": 240.4744,
      "mean_motion_rev_day": 15.57475083
    },
    {
      "epoch": "2026-04-11T21:00:05.452704Z",
      "apogee_km": 396.2301292218963,
      "perigee_km": 392.27099145412376,
      "latitude_deg": -1.3808816278915383e-06,
      "longitude_deg": -97.78890080474868,
      "height_km": 396.24598114378745,
      "semi_major_axis_km": 6772.38756033801,
      "eccentricity": 0.0002923,
      "inclination_deg": 53.0516,
      "raan_deg": 57.3221,
      "arg_perigee_deg": 123.762,
      "mean_anomaly_deg": 236.367,
      "mean_motion_rev_day": 15.57722371
    },
    {
      "epoch": "2026-04-13T05:20:07.751616Z",
      "apogee_km": 395.70209797867665,
      "perigee_km": 391.62046428270696,
      "latitude_deg": 4.762678094996433e-05,
      "longitude_deg": 129.33114743609738,
      "height_km": 395.9605314047555,
      "semi_major_axis_km": 6771.798281130691,
      "eccentricity": 0.00030137,
      "inclination_deg": 53.0508,
      "raan_deg": 50.7796,
      "arg_perigee_deg": 133.4542,
      "mean_anomaly_deg": 226.6721,
      "mean_motion_rev_day": 15.57925704
    },
    {
      "epoch": "2026-04-14T19:49:24.882816Z",
      "apogee_km": 395.1120321505932,
      "perigee_km": 391.16708642715093,
      "latitude_deg": -4.816203963471722e-05,
      "longitude_deg": -97.3589522780891,
      "height_km": 395.540696556548,
      "semi_major_axis_km": 6771.276559288872,
      "eccentricity": 0.0002913,
      "inclination_deg": 53.0511,
      "raan_deg": 42.9916,
      "arg_perigee_deg": 139.7271,
      "mean_anomaly_deg": 220.3956,
      "mean_motion_rev_day": 15.58105763
    }
  ]
}